     3.03           N: GNSS NAV DATA    M: Mixed            RINEX VERSION / TYPE
sbp2rinex v2.2 (RTKL                    20210504 171527 UTC PGM / RUN BY / DATE 
log: 2020-07-17-US-MTV-1.sbp                                COMMENT             
format: Swift Navigation SBP, option: CONVBASE,EPHALL,OBSALLCOMMENT             
                                                            END OF HEADER       
E 7 2020  7 17 22 20  0 -.410301086958E-03 -.511590769747E-11  .000000000000E+00
      .860000000000E+02  .157500000000E+02  .373479842649E-08  .715830179623E+00
      .692903995514E-06  .409999862313E-03  .534392893314E-05  .544061103058E+04
      .512400000000E+06 -.558793544769E-07 -.225655933839E+01 -.204890966415E-07
      .953761466965E+00  .220906250000E+03 -.865335326610E+00 -.569773733363E-08
      .254296306748E-09  .500000000000E+01  .211400000000E+04  .100000000000E+01
      .312000000000E+01  .000000000000E+00  .302679836750E-08  .349245965481E-08
      .513084000000E+06  .000000000000E+00
C29 2020  7 17 22  0  0  .257345149294E-03  .524469356833E-11  .000000000000E+00
      .100000000000E+01 -.621718750000E+02  .394337854326E-08 -.219462515666E+00
     -.329175963998E-05  .292378943413E-03 -.260770320892E-07  .528261778450E+04
      .511200000000E+06 -.121071934700E-07  .146650006783E+01  .274740159512E-07
      .965054113440E+00  .363546875000E+03  .161802288752E+01 -.723101548653E-08
     -.435732435719E-10  .120000000000E+02  .758000000000E+03  .100000000000E+01
      .200000000000E+01  .000000000000E+00  .100000001335E-09  .100000001335E-09
      .513075000000E+06  .100000000000E+01
R 9 2020  7 17 22 45  0  .143977813423E-03  .272848410532E-11  .828000000000E+05
      .678632275391E+04 -.301981067657E+01 -.186264514923E-08  .000000000000E+00
      .987582421875E+04  .601247787476E+00 -.931322574615E-09 -.200000000000E+01
      .225438681641E+05  .639228820801E+00 -.186264514923E-08  .240000000000E+04
E21 2020  7 17 22 20  0 -.610659539234E-03 -.213162820728E-11  .000000000000E+00
      .860000000000E+02  .175281250000E+03  .236831293545E-08 -.271663523053E+00
      .813417136669E-05  .156376510859E-03  .103004276752E-04  .544062627983E+04
      .512400000000E+06  .800937414169E-07 -.162476878168E+00  .726431608200E-07
      .982044844852E+00  .129281250000E+03 -.276788052817E+01 -.518450166959E-08
     -.130719730716E-09  .500000000000E+01  .211400000000E+04  .100000000000E+01
      .312000000000E+01  .000000000000E+00  .000000000000E+00  .000000000000E+00
      .513090000000E+06  .000000000000E+00
E 9 2020  7 17 22 20  0  .599339406472E-02 -.122355459098E-10  .000000000000E+00
      .860000000000E+02  .212187500000E+02  .356943439556E-08 -.266216993025E+01
      .890344381332E-06  .445828307420E-03  .598467886448E-05  .544061355019E+04
      .512400000000E+06 -.521540641785E-07 -.226275334524E+01 -.279396772385E-07
      .959733241930E+00  .209812500000E+03 -.633211421740E+00 -.557773233494E-08
      .362157942475E-09  .500000000000E+01  .211400000000E+04  .100000000000E+01
      .312000000000E+01  .000000000000E+00 -.698491930962E-09 -.698491930962E-09
      .513090000000E+06  .000000000000E+00
R10 2020  7 17 22 45  0 -.603748485446E-04  .000000000000E+00  .828000000000E+05
      .187238803711E+05 -.227276611328E+01  .931322574615E-09  .000000000000E+00
      .416085644531E+04  .373394012451E+00  .000000000000E+00 -.700000000000E+01
      .167784819336E+05  .244866847992E+01 -.279396772385E-08  .240000000000E+04
E14 2020  7 17 22 20  0 -.108782330062E-02 -.133866251417E-10  .000000000000E+00
      .860000000000E+02 -.100000000000E+02  .677671084864E-08 -.481894011837E+00
     -.895932316780E-06  .166737674852E+00  .436976552010E-05  .528932624626E+04
      .512400000000E+06 -.219419598579E-05  .120263086405E+01 -.789761543274E-06
      .882977252598E+00  .263687500000E+03  .176667385713E+01 -.119733558812E-07
      .276082928534E-09  .500000000000E+01  .211400000000E+04  .100000000000E+01
      .312000000000E+01  .000000000000E+00 -.488944351673E-08 -.558793544769E-08
      .513119000000E+06  .000000000000E+00
E36 2020  7 17 22 20  0  .532793288585E-03 -.497379915032E-11  .000000000000E+00
      .860000000000E+02 -.157062500000E+03  .272689930059E-08 -.268979766629E+01
     -.758841633797E-05  .669908476993E-04  .182911753654E-05  .544060731697E+04
      .512400000000E+06 -.372529029846E-08  .191900954140E+01 -.428408384323E-07
      .991622360320E+00  .313781250000E+03  .726122346665E+00 -.559880464126E-08
     -.134291308058E-09  .500000000000E+01  .211400000000E+04  .100000000000E+01
      .312000000000E+01  .000000000000E+00  .395812094212E-08  .442378222942E-08
      .513119000000E+06  .000000000000E+00
E24 2020  7 17 22 20  0  .534557987703E-02 -.198951966013E-10  .000000000000E+00
      .860000000000E+02  .154593750000E+03  .231295348665E-08  .135169474374E+00
      .728107988834E-05  .305161112919E-03  .119246542454E-04  .544061601448E+04
      .512400000000E+06 -.109896063805E-06 -.157230170753E+00  .204890966415E-07
      .980014333576E+00  .930625000000E+02  .769659700102E+00 -.511271296502E-08
     -.176793078427E-09  .500000000000E+01  .211400000000E+04  .100000000000E+01
      .312000000000E+01  .000000000000E+00  .437721610069E-07  .491272658110E-07
      .513189000000E+06  .000000000000E+00
E18 2020  7 17 22 20  0 -.119098252617E-02 -.141540112963E-10  .000000000000E+00
      .860000000000E+02  .817500000000E+02  .552987319856E-08  .260604321584E+01
      .302493572235E-05  .166959071066E+00 -.114347785711E-04  .528939189529E+04
      .512400000000E+06  .251084566116E-05  .121942134538E+01  .689178705215E-06
      .882340640389E+00  .610406250000E+03  .175238518368E+01 -.611775482904E-08
      .000000000000E+00  .500000000000E+01  .211400000000E+04  .100000000000E+01
      .312000000000E+01  .000000000000E+00 -.349245965481E-08 -.395812094212E-08
      .513227000000E+06  .000000000000E+00
G 1 2020  7 18  0  0  0  .265082344413E-04  .375166564481E-11  .000000000000E+00
      .700000000000E+01 -.129125000000E+03  .404481133977E-08 -.662342822517E+00
     -.646337866783E-05  .100609987276E-01  .664591789246E-05  .515370931625E+04
      .518400000000E+06  .949949026108E-07  .219590371049E+01  .163912773132E-06
      .980759197334E+00  .262937500000E+03  .806901474822E+00 -.799961893052E-08
     -.800033324599E-10  .200000000000E+01  .211400000000E+04  .100000000000E+01
      .200000000000E+01  .000000000000E+00  .512227416039E-08  .700000000000E+01
      .513588000000E+06  .400000000000E+01
R 1 2020  7 17 22 45  0  .646831467748E-04  .000000000000E+00  .828000000000E+05
      .636529052734E+04  .209876537323E+01 -.931322574615E-09  .000000000000E+00
     -.938355664062E+04  .231798553467E+01  .931322574615E-09  .100000000000E+01
      .228523461914E+05  .368809700012E+00 -.186264514923E-08  .240000000000E+04
E 1 2020  7 17 22 20  0 -.900413724594E-03 -.798650034994E-11  .000000000000E+00
      .860000000000E+02  .176218750000E+03  .244224458643E-08 -.148359514919E+01
      .802986323833E-05  .162324286066E-03  .108256936073E-04  .544061539078E+04
      .512400000000E+06  .614672899246E-07 -.159713332290E+00 -.372529029846E-08
      .982478630784E+00  .118968750000E+03 -.232768680600E+01 -.523378943691E-08
     -.190365072327E-09  .500000000000E+01  .211400000000E+04  .100000000000E+01
      .312000000000E+01  .000000000000E+00 -.209547579288E-08 -.232830643654E-08
      .513588000000E+06  .000000000000E+00
G 2 2020  7 18  0  0  0 -.488796271384E-03 -.568434188608E-11  .000000000000E+00
      .650000000000E+02 -.106437500000E+03  .457947646786E-08 -.414657328462E+00
     -.574998557568E-05  .197356188437E-01  .612251460552E-05  .515374284172E+04
      .518400000000E+06 -.270083546638E-06  .211853937106E+01  .135973095894E-06
      .959662527396E+00  .267718750000E+03 -.161740825859E+01 -.850035407387E-08
      .164292557730E-10  .200000000000E+01  .211400000000E+04  .100000000000E+01
      .200000000000E+01  .000000000000E+00 -.176951289177E-07  .650000000000E+02
      .513588000000E+06  .400000000000E+01
R 2 2020  7 17 22 45  0  .436738133430E-03  .181898940355E-11  .828000000000E+05
     -.105418730469E+05  .902834892273E+00 -.186264514923E-08  .000000000000E+00
     -.202985429687E+05  .127024841309E+01  .186264514923E-08 -.400000000000E+01
      .113923085937E+05  .310512351990E+01  .000000000000E+00  .240000000000E+04
E 2 2020  7 17 21 30  0  .148003513459E-03  .267164068646E-11  .000000000000E+00
      .810000000000E+02  .135093750000E+03  .237474177467E-08 -.273467621424E+00
      .625662505627E-05  .108429696411E-03  .103134661913E-04  .544062028503E+04
      .509400000000E+06  .447034835815E-07 -.159726782359E+00 -.298023223877E-07
      .982487876427E+00  .131312500000E+03 -.772073750462E+00 -.519093050881E-08
     -.216080429189E-09  .500000000000E+01  .211400000000E+04  .100000000000E+01
      .312000000000E+01  .000000000000E+00 -.349245965481E-08 -.419095158577E-08
      .513588000000E+06  .000000000000E+00
G 3 2020  7 18  0  0  0 -.242878682911E-03 -.114823706099E-10  .000000000000E+00
      .102000000000E+03 -.381250000000E+02  .438268255632E-08 -.172913788665E+01
     -.195205211639E-05  .308716506697E-02  .101402401924E-04  .515378711510E+04
      .518400000000E+06  .651925802231E-07 -.304739839548E+01  .409781932831E-07
      .966590373455E+00  .187156250000E+03  .789191770376E+00 -.772389315972E-08
      .613596987349E-09  .200000000000E+01  .211400000000E+04  .100000000000E+01
      .200000000000E+01  .000000000000E+00  .186264514923E-08  .102000000000E+03
      .513588000000E+06  .400000000000E+01
R 3 2020  7 17 22 45  0  .187344849110E-04  .000000000000E+00  .828000000000E+05
     -.184090380859E+05 -.658212661743E+00 -.931322574615E-09  .000000000000E+00
     -.166548823242E+05 -.509206771851E+00  .186264514923E-08  .500000000000E+01
     -.592640478516E+04  .344553375244E+01  .186264514923E-08  .240000000000E+04
